[{"OBJECT_NAME":"STARLINK-32784","OBJECT_ID":"2025-008W","EPOCH":"2026-03-09T22:06:29.211552","MEAN_MOTION":15.31114656,"ECCENTRICITY":0.00057395,"INCLINATION":42.9937,"RA_OF_ASC_NODE":275.4081,"ARG_OF_PERICENTER":294.7007,"MEAN_ANOMALY":65.3248,"EPHEMERIS_TYPE":0,"CLASSIFICATION_TYPE":"U","NORAD_CAT_ID":62607,"ELEMENT_SET_NO":999,"REV_AT_EPOCH":6567,"BSTAR":0.0029487401,"MEAN_MOTION_DOT":0.00091369,"MEAN_MOTION_DDOT":0},{"OBJECT_NAME":"SCS-01 H","OBJECT_ID":"2025-100H","EPOCH":"2026-03-09T23:19:05.376864","MEAN_MOTION":15.31767757,"ECCENTRICITY":0.00071581,"INCLINATION":97.3749,"RA_OF_ASC_NODE":145.8085,"ARG_OF_PERICENTER":277.8492,"MEAN_ANOMALY":82.1937,"EPHEMERIS_TYPE":0,"CLASSIFICATION_TYPE":"U","NORAD_CAT_ID":63989,"ELEMENT_SET_NO":999,"REV_AT_EPOCH":4566,"BSTAR":0.0011436254,"MEAN_MOTION_DOT":0.00035149,"MEAN_MOTION_DDOT":0}]
